INTEGRAL
1 27540U 02048A   09292.62500000 -.00000409 +00000-0 +10000-3 0 08556
2 27540 085.7504 354.2463 8510329 260.7719 358.7819 00.33409714004710